STARLINK-4688           
1 53714U 22107Q   22267.25001157  .00023708  00000+0  17255-3 0  9994
2 53714  53.2142 178.3222 0000932 126.1501 115.4658 15.73242345  3137
STARLINK-4686           
1 53715U 22107R   22267.58335648 -.00002842  00000+0 -15811-4 0  9991
2 53715  53.2141 176.6751 0001480 132.2966 196.0090 15.73233622  3174
STARLINK-4699           
1 53716U 22107S   22267.58335648  .00027478  00000+0  19948-3 0  9996
2 53716  53.2142 176.6742 0001528 129.3660 199.5267 15.73208826  3179
STARLINK-4702           
1 53717U 22107T   22267.58335648  .00256747  36453-4  68979-3 0  9994
2 53717  53.2118 174.9259 0007060 332.3295 127.4388 15.93933006  3197
STARLINK-4695           
1 53718U 22107U   22267.58335648  .00028437  00000+0  20619-3 0  9991
2 53718  53.2140 176.6729 0001335 134.1484 195.3136 15.73217389  3171
STARLINK-4644           
1 53719U 22107V   22267.58335648  .00231857  31105-4  70282-3 0  9990
2 53719  53.2120 175.1072 0007825 300.3611  71.6904 15.91649933  3199
STARLINK-4642           
1 53720U 22107W   22267.58335648  .00051000  00000+0  36555-3 0  9992
2 53720  53.2141 176.6766 0001386 136.0935 191.5946 15.73202498  3176
STARLINK-4707           
1 53721U 22107X   22267.58335648  .00011838  00000+0  88452-4 0  9992
2 53721  53.2143 176.6829 0001310 146.0353 178.6380 15.73250423  3170
STARLINK-4700           
1 53722U 22107Y   22266.83335648  .00008716  00000+0  66361-4 0  9996
2 53722  53.2148 180.3924 0001416 135.4798 260.2179 15.73232743  1308
STARLINK-4705           
1 53723U 22107Z   22267.25001157 -.00011560  00000+0 -77892-4 0  9993
2 53723  53.2141 178.3370 0001264 126.5038 107.9234 15.73249820  3128
STARLINK-4663           
1 53724U 22107AA  22267.25001157  .00020743  00000+0  15148-3 0  9990
2 53724  53.2140 178.3330 0001226 129.2262 106.9889 15.73256972  3122
STARLINK-4704           
1 53725U 22107AB  22267.58335648  .00248527  34794-4  67297-3 0  9998
2 53725  53.2115 174.9342 0007187 333.4182 122.2937 15.93791597  3193
STARLINK-4697           
1 53726U 22107AC  22267.58335648  .00027522  00000+0  19976-3 0  9998
2 53726  53.2141 176.6840 0001183 139.2694 184.8526 15.73212813  3178
STARLINK-4701           
1 53727U 22107AD  22267.25001157 -.00017254  00000+0 -11852-3 0  9996
2 53727  53.2142 178.3404 0001297 124.2876 108.3717 15.73248117  3121
STARLINK-4640           
1 53728U 22107AE  22266.83335648  .00037749  00000+0  27216-3 0  9995
2 53728  53.2149 180.3995 0001598 130.1986 261.8967 15.73200787  1300
STARLINK-4651           
1 53729U 22107AF  22267.58335648 -.00011689  00000+0 -78826-4 0  9990
2 53729  53.2141 176.6925 0001507 135.3815 184.5324 15.73244320  3178
STARLINK-4641           
1 53730U 22107AG  22267.58335648  .00059501  00000+0  42512-3 0  9997
2 53730  53.2141 176.6902 0001435 134.2671 186.8138 15.73213332  3170
STARLINK-4636           
1 53731U 22107AH  22267.58335648  .00042042  00000+0  30238-3 0  9992
2 53731  53.2143 176.6950 0001450 132.3524 186.4074 15.73207038  3170
STARLINK-4661           
1 53732U 22107AJ  22267.58335648 -.00000135  00000+0  34513-5 0  9993
2 53732  53.2143 176.6915 0001389 137.2002 183.3100 15.73246517  3179
STARLINK-4574           
1 53733U 22107AK  22267.25001157 -.00012090  00000+0 -81701-4 0  9997
2 53733  53.2141 178.3491 0001116 108.2957 120.1829 15.73242412  3123
STARLINK-4616           
1 53734U 22107AL  22267.58335648  .00029132  00000+0  21114-3 0  9993
2 53734  53.2142 176.6938 0001276 136.2713 183.0662 15.73213471  3171
STARLINK-4618           
1 53735U 22107AM  22267.25001157  .00016151  00000+0  11911-3 0  9994
2 53735  53.2141 178.3514 0001136 136.0048  91.3497 15.73232410  3120
STARLINK-4652           
1 53736U 22107AN  22266.83335648  .00035915  00000+0  25922-3 0  9999
2 53736  53.2149 180.4083 0001663 120.4280 267.4911 15.73199254  1307
STARLINK-4646           
1 53737U 22107AP  22267.58335648  .00013145  00000+0  97750-4 0  9993
2 53737  53.2142 176.7014 0001499 134.3602 181.3721 15.73242674  3177
STARLINK-4662           
1 53738U 22107AQ  22266.83335648  .00037522  00000+0  27054-3 0  9995
2 53738  53.2150 180.4107 0001183 122.0845 264.6480 15.73202194  1308
STARLINK-4613           
1 53739U 22107AR  22266.99978494  .00209791  27985-4  56411-3 0  9999
2 53739  53.2119 177.8813 0007334 331.2668  28.7956 15.93968019  3024
STARLINK-4607           
1 53740U 22107AS  22267.25001157 -.00015357  00000+0 -10502-3 0  9994
2 53740  53.2143 178.3538 0001213 132.5699  93.5759 15.73240046  3122
STARLINK-4614           
1 53741U 22107AT  22267.58335648  .00063561  00000+0  45379-3 0  9994
2 53741  53.2142 176.7063 0001322 117.5679 195.7879 15.73204210  3175
STARLINK-4637           
1 53742U 22107AU  22267.58335648  .00019552  00000+0  14273-3 0  9995
2 53742  53.2145 176.7036 0001349 154.2378 160.4403 15.73310404  3177
STARLINK-4645           
1 53743U 22107AV  22267.58335648  .00068343  00000+0  48766-3 0  9992
2 53743  53.2142 176.7085 0001462 138.1248 174.0857 15.73187808  3176
STARLINK-4670           
1 53744U 22107AW  22267.25001157 -.00015606  00000+0 -10680-3 0  9992
2 53744  53.2143 178.3566 0001095 112.8195 112.1454 15.73239699  3129
STARLINK-4656           
1 53745U 22107AX  22267.25001157 -.00013440  00000+0 -91372-4 0  9995
2 53745  53.2142 178.3614 0001105 128.3395  94.2474 15.73232654  3125
STARLINK-4589           
1 53746U 22107AY  22267.25001157 -.00010687  00000+0 -71685-4 0  9991
2 53746  53.2143 178.3590 0001342 123.4766 100.2764 15.73244668  3129
STARLINK-4657           
1 53747U 22107AZ  22267.50002315  .00437772  92629-4  86848-3 0  9992
2 53747  53.2115 175.0362 0006117 298.4430 194.6689 15.99371517  3187
STARLINK-4669           
1 53748U 22107BA  22267.58335648  .00017688  00000+0  12998-3 0  9991
2 53748  53.2145 176.7109 0001410 137.8716 173.0999 15.73236249  3170
STARLINK-4680           
1 53749U 22107BB  22267.58335648 -.00006145  00000+0 -39310-4 0  9998
2 53749  53.2161 176.7132 0001288 115.6800 194.6846 15.73248219  3176
STARLINK-4612           
1 53750U 22107BC  22267.58335648  .00009441  00000+0  71493-4 0  9998
2 53750  53.2143 176.7132 0001212 116.5855 193.2155 15.73238231  3176
FALCON 9 DEB            
1 53751U 22107BD  22266.80109747  .00311099  49596-4  74738-3 0  9999
2 53751  53.2123 178.7690 0006413 318.3647  41.6894 15.95977310  2992
SHERPA-LTC2             
1 53752U 22107BE  22267.19122018  .00260567  37435-4  67701-3 0  9993
2 53752  53.2099 176.9412 0008867 341.8307  18.2404 15.94528923  3052
FALCON 9 DEB            
1 53753U 22107BF  22266.80688680  .00328078  53893-4  79492-3 0  9991
2 53753  53.2093 178.8069 0008507 316.1176  43.9177 15.95780958  2999
FALCON 9 DEB            
1 53754U 22107BG  22266.82905851  .00132903  17630-4  41440-3 0  9997
2 53754  53.2137 178.9607 0009255 332.5851  27.4688 15.91290949  2997
FALCON 9 DEB            
1 53755U 22107BH  22266.79281381  .00337719  57427-4  75693-3 0  9996
2 53755  53.2061 178.7094 0004910 305.6357  54.4216 15.97243132  2992
FALCON 9 DEB            
1 53756U 22107BJ  22266.72698581  .00325304  54109-4  72217-3 0  9994
2 53756  53.2078 179.0092 0006023 297.6660  62.3759 15.97409825  2978
CENTISPACE-1 S3         
1 53757U 22108A   22267.44873575 -.00001379  00000+0 -25687-3 0  9994
2 53757  53.5328 271.1398 0008918 331.6606  28.3825 14.58225788  2670
CENTISPACE-1 S4         
1 53758U 22108B   22267.45539834  .00000275  00000+0  99632-4 0  9997
2 53758  53.5296 271.1705 0008740 316.2313  43.7970 14.57718882  2677
KZ-1A R/B               
1 53759U 22108C   22267.43644633  .00457812  10037-4  66439-3 0  9997
2 53759  53.5568 261.3727 0354337 133.9359 229.1538 15.43666665  2818
YAOGAN-35 05A           
1 53760U 22109A   22267.47194497  .00008546  00000+0  35287-3 0  9999
2 53760  34.9965 270.4698 0006400  63.6112  66.8648 15.23270578  2790
YAOGAN-35 05B           
1 53761U 22109B   22267.46803715 -.00027598  00000+0 -11459-2 0  9993
2 53761  34.9982 270.4429 0006541  92.5875  36.9408 15.23054139  2756
CZ-2D DEB               
1 53762U 22109C   22267.46369351  .00016385  00000+0  65693-3 0  9997
2 53762  34.9986 270.4054 0008650  75.8019  52.7437 15.24135601  2755
YAOGAN-35 05C           
1 53763U 22109D   22267.47143493  .00006299  00000+0  26096-3 0  9993
2 53763  34.9982 270.4649 0005455  76.6114  53.7741 15.23224449  2754
CZ-2D R/B               
1 53764U 22109E   22267.46544972  .00029475  00000+0  11754-2 0  9995
2 53764  34.9996 270.4206 0008214  66.9631  61.9701 15.24225236  2754
EUTELSAT KONNECT VHTS   
1 53765U 22110A   22265.11826723 -.00000236  00000+0 -36740-1 0  9992
2 53765   3.1903 142.7411 7916596 178.9104 324.3178  1.14544836   179
ARIANE 5 R/B            
1 53766U 22110B   22265.61773909  .00000319  00000+0  11872-2 0  9995
2 53766   3.2608 147.8306 8155472 175.2473 206.3540  1.26378206   193
1998-067UE              
1 53767U 98067UE  22266.81127928  .00032206  00000+0  53295-3 0  9993
2 53767  51.6414 207.8182 0002966 336.4343  23.6510 15.51893140  2712
BEAVERCUBE              
1 53768U 98067UF  22267.13480990  .00031200  00000+0  51876-3 0  9997
2 53768  51.6411 206.2288 0000932   8.6464 351.4542 15.51778406  2773
CLICK-A                 
1 53769U 98067UG  22267.13313413  .00052798  00000+0  86047-3 0  9996
2 53769  51.6423 206.2184 0001114 341.9669  18.1281 15.52093607  2776
1998-067UH              
1 53770U 98067UH  22267.12912892  .00064212  00000+0  10209-2 0  9993
2 53770  51.6410 206.1908 0002199 320.7988  39.2843 15.52697969  2779
JAGSAT                  
1 53771U 98067UJ  22267.12820931  .00066543  00000+0  10523-2 0  9994
2 53771  51.6410 206.1846 0002226 322.6979  37.3856 15.52831318  2763
STARLINK-4718           
1 53773U 22111A   22267.58335648  .00042089  00000+0  30296-3 0  9998
2 53773  53.2161 200.1786 0001123 120.2674 326.0868 15.73187764  2068
